{"type": "FeatureCollection", "features": [ {"type": "Feature", "properties": {"norad_id": 52912, "name": "GAOFEN-12 03", "group": "resource", "lat": 13.031809250782706, "lon": -121.95998958792154, "alt_km": 630.591657231882, "timestamp": "2025-12-18T15:47:10.878262+00:00", "meta": {"OBJECT_NAME": "GAOFEN-12 03", "OBJECT_ID": "2022-069A", "EPOCH": "2025-12-18T05:59:20.152320", "MEAN_MOTION": 14.79621839, "ECCENTRICITY": 0.00020634, "INCLINATION": 97.8487, "RA_OF_ASC_NODE": 239.4709, "ARG_OF_PERICENTER": 55.1009, "MEAN_ANOMALY": 305.0396, "EPHEMERIS_TYPE": 0, "CLASSIFICATION_TYPE": "U", "NORAD_CAT_ID": 52912, "ELEMENT_SET_NO": 999, "REV_AT_EPOCH": 18785, "BSTAR": 0.00013598214, "MEAN_MOTION_DOT": 9.69e-06, "MEAN_MOTION_DDOT": 0}, "tle": {"line1": "1 52912U 22069A   25352.24953880  .00000969  00000+0  13598-3 0  9996", "line2": "2 52912  97.8487 239.4709 0002063  55.1009 305.0396 14.79621839187854"}}, "geometry": {"type": "Point", "coordinates": [-121.95998958792154, 13.031809250782706]}}, {"type": "Feature", "properties": {"norad_id": 54754, "name": "SWOT", "group": "resource", "lat": 73.41681358685942, "lon": 51.43068345842148, "alt_km": 885.7492425038199, "timestamp": "2025-12-18T15:47:10.878272+00:00", "meta": {"OBJECT_NAME": "SWOT", "OBJECT_ID": "2022-173A", "EPOCH": "2025-12-18T06:43:51.169440", "MEAN_MOTION": 14.00167687, "ECCENTRICITY": 3.654e-05, "INCLINATION": 77.6108, "RA_OF_ASC_NODE": 279.5104, "ARG_OF_PERICENTER": 98.1983, "MEAN_ANOMALY": 261.921, "EPHEMERIS_TYPE": 0, "CLASSIFICATION_TYPE": "U", "NORAD_CAT_ID": 54754, "ELEMENT_SET_NO": 999, "REV_AT_EPOCH": 15383, "BSTAR": 4.5197949e-05, "MEAN_MOTION_DOT": 6.4e-07, "MEAN_MOTION_DDOT": 0}, "tle": {"line1": "1 54754U 22173A   25352.28045335  .00000064  00000+0  45198-4 0  9997", "line2": "2 54754  77.6108 279.5104 0000365  98.1983 261.9210 14.00167687153837"}}, "geometry": {"type": "Point", "coordinates": [51.43068345842148, 73.41681358685942]}}, {"type": "Feature", "properties": {"norad_id": 57654, "name": "GAOFEN-12 04", "group": "resource", "lat": -4.9830236655153834, "lon": 87.63031521141494, "alt_km": 634.1715545258148, "timestamp": "2025-12-18T15:47:10.878282+00:00", "meta": {"OBJECT_NAME": "GAOFEN-12 04", "OBJECT_ID": "2023-123A", "EPOCH": "2025-12-18T06:50:19.793184", "MEAN_MOTION": 14.79715948, "ECCENTRICITY": 0.00012495, "INCLINATION": 97.9126, "RA_OF_ASC_NODE": 267.958, "ARG_OF_PERICENTER": 75.6312, "MEAN_ANOMALY": 284.5038, "EPHEMERIS_TYPE": 0, "CLASSIFICATION_TYPE": "U", "NORAD_CAT_ID": 57654, "ELEMENT_SET_NO": 999, "REV_AT_EPOCH": 12587, "BSTAR": 0.0001493862, "MEAN_MOTION_DOT": 1.071e-05, "MEAN_MOTION_DDOT": 0}, "tle": {"line1": "1 57654U 23123A   25352.28495131  .00001071  00000+0  14939-3 0  9995", "line2": "2 57654  97.9126 267.9580 0001249  75.6312 284.5038 14.79715948125878"}}, "geometry": {"type": "Point", "coordinates": [87.63031521141494, -4.9830236655153834]}}, {"type": "Feature", "properties": {"norad_id": 59065, "name": "PARS 1", "group": "resource", "lat": 81.60886988789643, "lon": -98.99622851938874, "alt_km": 428.328600393992, "timestamp": "2025-12-18T15:47:10.878292+00:00", "meta": {"OBJECT_NAME": "PARS 1", "OBJECT_ID": "2024-039Q", "EPOCH": "2025-12-18T06:03:52.803072", "MEAN_MOTION": 15.41098358, "ECCENTRICITY": 0.00122099, "INCLINATION": 97.4633, "RA_OF_ASC_NODE": 323.3027, "ARG_OF_PERICENTER": 55.7231, "MEAN_ANOMALY": 304.517, "EPHEMERIS_TYPE": 0, "CLASSIFICATION_TYPE": "U", "NORAD_CAT_ID": 59065, "ELEMENT_SET_NO": 999, "REV_AT_EPOCH": 10073, "BSTAR": 0.0002575563, "MEAN_MOTION_DOT": 0.00010596, "MEAN_MOTION_DDOT": 0}, "tle": {"line1": "1 59065U 24039Q   25352.25269448  .00010596  00000+0  25756-3 0  9998", "line2": "2 59065  97.4633 323.3027 0012209  55.7231 304.5170 15.41098358100731"}}, "geometry": {"type": "Point", "coordinates": [-98.99622851938874, 81.60886988789643]}}, {"type": "Feature", "properties": {"norad_id": 59371, "name": "RESURS-P 4", "group": "resource", "lat": 37.55928361864563, "lon": -66.75551915689019, "alt_km": 466.08503122334514, "timestamp": "2025-12-18T15:47:10.878303+00:00", "meta": {"OBJECT_NAME": "RESURS-P 4", "OBJECT_ID": "2024-061A", "EPOCH": "2025-12-18T07:47:02.859360", "MEAN_MOTION": 15.3212941, "ECCENTRICITY": 0.00011202, "INCLINATION": 97.255, "RA_OF_ASC_NODE": 298.5397, "ARG_OF_PERICENTER": 58.1213, "MEAN_ANOMALY": 302.0138, "EPHEMERIS_TYPE": 0, "CLASSIFICATION_TYPE": "U", "NORAD_CAT_ID": 59371, "ELEMENT_SET_NO": 999, "REV_AT_EPOCH": 9606, "BSTAR": 0.00011398156, "MEAN_MOTION_DOT": 3.459e-05, "MEAN_MOTION_DDOT": 0}, "tle": {"line1": "1 59371U 24061A   25352.32433865  .00003459  00000+0  11398-3 0  9994", "line2": "2 59371  97.2550 298.5397 0001120  58.1213 302.0138 15.32129410 96068"}}, "geometry": {"type": "Point", "coordinates": [-66.75551915689019, 37.55928361864563]}}, {"type": "Feature", "properties": {"norad_id": 59625, "name": "LEGION 1", "group": "resource", "lat": -67.47441478355648, "lon": 85.82274674768368, "alt_km": 521.0480906959265, "timestamp": "2025-12-18T15:47:10.878313+00:00", "meta": {"OBJECT_NAME": "LEGION 1", "OBJECT_ID": "2024-081A", "EPOCH": "2025-12-18T06:35:14.570016", "MEAN_MOTION": 15.16534805, "ECCENTRICITY": 0.00036831, "INCLINATION": 97.5214, "RA_OF_ASC_NODE": 66.866, "ARG_OF_PERICENTER": 292.6917, "MEAN_ANOMALY": 67.3926, "EPHEMERIS_TYPE": 0, "CLASSIFICATION_TYPE": "U", "NORAD_CAT_ID": 59625, "ELEMENT_SET_NO": 999, "REV_AT_EPOCH": 9011, "BSTAR": 0.00021858985, "MEAN_MOTION_DOT": 4.195e-05, "MEAN_MOTION_DDOT": 0}, "tle": {"line1": "1 59625U 24081A   25352.27447419  .00004195  00000+0  21859-3 0  9993", "line2": "2 59625  97.5214  66.8660 0003683 292.6917  67.3926 15.16534805 90117"}}, "geometry": {"type": "Point", "coordinates": [85.82274674768368, -67.47441478355648]}}, {"type": "Feature", "properties": {"norad_id": 59626, "name": "LEGION 2", "group": "resource", "lat": 67.38789961353915, "lon": -94.17078745603114, "alt_km": 513.3031984331883, "timestamp": "2025-12-18T15:47:10.878323+00:00", "meta": {"OBJECT_NAME": "LEGION 2", "OBJECT_ID": "2024-081B", "EPOCH": "2025-12-18T05:47:43.605024", "MEAN_MOTION": 15.16546335, "ECCENTRICITY": 0.00056231, "INCLINATION": 97.5217, "RA_OF_ASC_NODE": 66.9208, "ARG_OF_PERICENTER": 269.7372, "MEAN_ANOMALY": 90.3217, "EPHEMERIS_TYPE": 0, "CLASSIFICATION_TYPE": "U", "NORAD_CAT_ID": 59626, "ELEMENT_SET_NO": 999, "REV_AT_EPOCH": 9011, "BSTAR": 0.00022822962, "MEAN_MOTION_DOT": 4.386e-05, "MEAN_MOTION_DDOT": 0}, "tle": {"line1": "1 59626U 24081B   25352.24147691  .00004386  00000+0  22823-3 0  9994", "line2": "2 59626  97.5217  66.9208 0005623 269.7372  90.3217 15.16546335 90116"}}, "geometry": {"type": "Point", "coordinates": [-94.17078745603114, 67.38789961353915]}}, {"type": "Feature", "properties": {"norad_id": 60182, "name": "ALOS-4 (DAICHI-4)", "group": "resource", "lat": 59.42043436395897, "lon": 73.79016094297997, "alt_km": 624.5106966951644, "timestamp": "2025-12-18T15:47:10.878339+00:00", "meta": {"OBJECT_NAME": "ALOS-4 (DAICHI-4)", "OBJECT_ID": "2024-123A", "EPOCH": "2025-12-18T05:46:31.245024", "MEAN_MOTION": 14.7946977, "ECCENTRICITY": 0.0001383, "INCLINATION": 97.9224, "RA_OF_ASC_NODE": 87.0094, "ARG_OF_PERICENTER": 102.2976, "MEAN_ANOMALY": 257.839, "EPHEMERIS_TYPE": 0, "CLASSIFICATION_TYPE": "U", "NORAD_CAT_ID": 60182, "ELEMENT_SET_NO": 999, "REV_AT_EPOCH": 7912, "BSTAR": 0.00024738109, "MEAN_MOTION_DOT": 1.796e-05, "MEAN_MOTION_DDOT": 0}, "tle": {"line1": "1 60182U 24123A   25352.24063941  .00001796  00000+0  24738-3 0  9994", "line2": "2 60182  97.9224  87.0094 0001383 102.2976 257.8390 14.79469770 79129"}}, "geometry": {"type": "Point", "coordinates": [73.79016094297997, 59.42043436395897]}}, {"type": "Feature", "properties": {"norad_id": 60452, "name": "LEGION 3", "group": "resource", "lat": -12.833742149189746, "lon": 111.58116348353222, "alt_km": 510.9728846159296, "timestamp": "2025-12-18T15:47:10.878349+00:00", "meta": {"OBJECT_NAME": "LEGION 3", "OBJECT_ID": "2024-146A", "EPOCH": "2025-12-18T05:25:29.668512", "MEAN_MOTION": 15.15819718, "ECCENTRICITY": 0.00154933, "INCLINATION": 45.0024, "RA_OF_ASC_NODE": 280.7203, "ARG_OF_PERICENTER": 228.329, "MEAN_ANOMALY": 131.6262, "EPHEMERIS_TYPE": 0, "CLASSIFICATION_TYPE": "U", "NORAD_CAT_ID": 60452, "ELEMENT_SET_NO": 999, "REV_AT_EPOCH": 7456, "BSTAR": 0.00022715365, "MEAN_MOTION_DOT": 4.162e-05, "MEAN_MOTION_DDOT": 0}, "tle": {"line1": "1 60452U 24146A   25352.22603783  .00004162  00000+0  22715-3 0  9994", "line2": "2 60452  45.0024 280.7203 0015493 228.3290 131.6262 15.15819718 74563"}}, "geometry": {"type": "Point", "coordinates": [111.58116348353222, -12.833742149189746]}}, {"type": "Feature", "properties": {"norad_id": 60453, "name": "LEGION 4", "group": "resource", "lat": -11.534922863980903, "lon": -158.05842706345933, "alt_km": 524.7871016330428, "timestamp": "2025-12-18T15:47:10.878360+00:00", "meta": {"OBJECT_NAME": "LEGION 4", "OBJECT_ID": "2024-146B", "EPOCH": "2025-12-18T05:26:03.196032", "MEAN_MOTION": 15.1588166, "ECCENTRICITY": 0.00089672, "INCLINATION": 45.0397, "RA_OF_ASC_NODE": 12.4861, "ARG_OF_PERICENTER": 339.8943, "MEAN_ANOMALY": 20.1582, "EPHEMERIS_TYPE": 0, "CLASSIFICATION_TYPE": "U", "NORAD_CAT_ID": 60453, "ELEMENT_SET_NO": 999, "REV_AT_EPOCH": 7341, "BSTAR": 0.00021939273, "MEAN_MOTION_DOT": 4.011e-05, "MEAN_MOTION_DDOT": 0}, "tle": {"line1": "1 60453U 24146B   25352.22642588  .00004011  00000+0  21939-3 0  9991", "line2": "2 60453  45.0397  12.4861 0008967 339.8943  20.1582 15.15881660 73413"}}, "geometry": {"type": "Point", "coordinates": [-158.05842706345933, -11.534922863980903]}}]}